     2.100          NAVIGATION                              RINEX VERSION / TYPE
fic2rin                                 04/07/2014 00:19:29 PGM / RUN BY / DATE
                                                            END OF HEADER
 9 14  4  6 14  0  0.0  .318098813295D-03  .295585778076D-11  .000000000000D+00
     .850000000000D+02  .445625000000D+02  .413481508879D-08  .758355256655D+00
     .195391476154D-05  .170701785246D-01  .627338886261D-05  .515368544960D+04
     .504000000000D+05 -.152736902237D-06  .232298845587D+01 -.249594449997D-06
     .982262885478D+00  .275062500000D+03  .178541302288D+01 -.825105797540D-08
    -.118933525487D-09  .100000000000D+01  .178700000000D+04  .000000000000D+00
     .240000000000D+01  .000000000000D+00 -.605359673500D-08  .850000000000D+02
     .432060000000D+05  .400000000000D+01
10 14  4  6 14  0  0.0 -.120731070638D-03 -.125055521494D-11  .000000000000D+00
     .980000000000D+02  .790625000000D+01  .516414367874D-08 -.275661812167D+01
     .169500708580D-06  .134883690625D-01  .760331749916D-05  .515371779060D+04
     .504000000000D+05  .152736902237D-06  .239395089024D+00 -.244006514549D-06
     .942626174884D+00  .221718750000D+03  .861399112913D+00 -.811462372094D-08
    -.907180644858D-10  .100000000000D+01  .178700000000D+04  .000000000000D+00
     .240000000000D+01  .000000000000D+00 -.279396772385D-08  .980000000000D+02
     .432060000000D+05  .400000000000D+01
11 14  4  6 14  0  0.0 -.478391069919D-03 -.318323145621D-11  .000000000000D+00
     .450000000000D+02 -.315625000000D+01  .634169272839D-08 -.138266357840D+00
    -.221654772758D-06  .148437833413D-01  .788830220699D-05  .515369876289D+04
     .504000000000D+05 -.176951289177D-06 -.113702062520D+01  .206753611565D-06
     .890120678653D+00  .194093750000D+03  .127363198382D+01 -.915252409651D-08
     .345371528968D-09  .100000000000D+01  .178700000000D+04  .000000000000D+00
     .240000000000D+01  .000000000000D+00 -.116415321827D-07  .450000000000D+02
     .432060000000D+05  .400000000000D+01
12 14  4  6 14  0  0.0  .196887645870D-03  .238742359215D-11  .000000000000D+00
     .970000000000D+02 -.395312500000D+02  .396016495677D-08 -.724179718729D+00
    -.214017927647D-05  .505336001515D-02  .539235770702D-05  .515364813232D+04
     .504000000000D+05  .184401869774D-06 -.287751105605D+01  .540167093277D-07
     .987367388478D+00  .289875000000D+03  .382190187733D+00 -.796318884164D-08
    -.131076888450D-09  .100000000000D+01  .178700000000D+04  .000000000000D+00
     .240000000000D+01  .000000000000D+00 -.121071934700D-07  .970000000000D+02
     .432060000000D+05  .400000000000D+01
13 14  4  6 14  0  0.0  .125407241285D-04 -.386535248253D-11  .000000000000D+00
     .570000000000D+02  .584062500000D+02  .412338604129D-08  .202195079882D+01
     .309385359287D-05  .535895582289D-02  .829063355923D-05  .515361367416D+04
     .504000000000D+05  .931322574615D-07  .137867946584D+01 -.745058059692D-07
     .977884822245D+00  .223156250000D+03  .221887088358D+01 -.782068290569D-08
    -.259296515026D-09  .100000000000D+01  .178700000000D+04  .000000000000D+00
     .240000000000D+01  .000000000000D+00 -.111758708954D-07  .570000000000D+02
     .432060000000D+05  .400000000000D+01
14 14  4  6 14  0  0.0  .184029340744D-03 -.329691829393D-11  .000000000000D+00
     .490000000000D+02  .447187500000D+02  .425839166482D-08  .235544472566D+01
     .219792127609D-05  .732918886933D-02  .840611755848D-05  .515364409637D+04
     .504000000000D+05  .242143869400D-07  .134716571760D+01 -.124797224998D-06
     .970475512292D+00  .220125000000D+03 -.199909112242D+01 -.779925344164D-08
    -.188936441390D-09  .100000000000D+01  .178700000000D+04  .000000000000D+00
     .240000000000D+01  .000000000000D+00 -.884756445885D-08  .490000000000D+02
     .432060000000D+05  .400000000000D+01
15 14  4  6 14  0  0.0 -.172380823642D-03 -.216004991671D-11  .000000000000D+00
     .220000000000D+02  .362812500000D+02  .514807158070D-08  .175293060343D+01
     .213645398617D-05  .623895879835D-02  .894814729691D-05  .515367375183D+04
     .504000000000D+05 -.596046447754D-07  .123679205075D+01  .128522515297D-06
     .937114080963D+00  .195593750000D+03  .273654493117D+00 -.834106172442D-08
    -.286797660559D-09  .100000000000D+01  .178700000000D+04  .000000000000D+00
     .240000000000D+01  .000000000000D+00 -.102445483208D-07  .220000000000D+02
     .432060000000D+05  .400000000000D+01
16 14  4  6 14  0  0.0 -.224453862756D-03  .170530256582D-11  .000000000000D+00
     .290000000000D+02 -.464062500000D+02  .381373028575D-08 -.289851609757D+01
    -.240653753281D-05  .770838872995D-02  .609643757343D-05  .515356801605D+04
     .504000000000D+05 -.726431608200D-07 -.285898924335D+01 -.465661287308D-07
     .987976708487D+00  .277718750000D+03  .172554639936D+00 -.778175271266D-08
    -.435732435719D-10  .100000000000D+01  .178700000000D+04  .000000000000D+00
     .240000000000D+01  .000000000000D+00 -.977888703346D-08  .290000000000D+02
     .432060000000D+05  .400000000000D+01
17 14  4  6 14  0  0.0 -.827522017062D-04 -.329691829393D-11  .000000000000D+00
     .900000000000D+02 -.610937500000D+02  .411731435981D-08  .241433693309D+01
    -.306777656078D-05  .927418866195D-02  .922381877899D-05  .515357384872D+04
     .504000000000D+05  .409781932831D-07 -.182649436946D+01 -.160187482834D-06
     .967917273800D+00  .202937500000D+03 -.210598448668D+01 -.774139388870D-08
     .247867467532D-09  .100000000000D+01  .178700000000D+04  .000000000000D+00
     .240000000000D+01  .000000000000D+00 -.102445483208D-07  .900000000000D+02
     .432060000000D+05  .400000000000D+01
18 14  4  6 14  0  0.0  .311593525112D-03  .227373675443D-11  .000000000000D+00
     .710000000000D+02 -.500000000000D+00  .550987236544D-08 -.223428287622D+01
    -.800937414169D-07  .150256180204D-01  .674463808537D-05  .515368001556D+04
     .504000000000D+05  .227242708206D-06  .217656531594D+00  .204890966415D-07
     .926395268493D+00  .226406250000D+03 -.205038270386D+01 -.828641659108D-08
     .382158775590D-10  .100000000000D+01  .178700000000D+04  .000000000000D+00
     .240000000000D+01  .000000000000D+00 -.107102096081D-07  .710000000000D+02
     .432060000000D+05  .400000000000D+01
20 14  4  6 14  0  0.0  .177053268999D-03  .363797880709D-11  .000000000000D+00
     .420000000000D+02  .368750000000D+01  .556880339159D-08 -.167986980765D+01
     .325962901115D-06  .585408136249D-02  .735744833946D-05  .515353807831D+04
     .504000000000D+05  .894069671631D-07  .164544159890D+00  .987201929092D-07
     .927373246784D+00  .220875000000D+03  .131566732708D+01 -.842677958062D-08
    -.971469037013D-10  .100000000000D+01  .178700000000D+04  .000000000000D+00
     .240000000000D+01  .000000000000D+00 -.791624188423D-08  .420000000000D+02
     .432060000000D+05  .400000000000D+01
21 14  4  6 14  0  0.0 -.353745184839D-03 -.227373675443D-11  .000000000000D+00
     .320000000000D+02  .465625000000D+01  .529129183211D-08 -.123999214016D+01
     .713393092155D-06  .213519203244D-01  .705569982529D-05  .515377403450D+04
     .504000000000D+05  .324100255966D-06 -.827546168905D+00  .407919287682D-06
     .932231188108D+00  .224062500000D+03 -.204195680335D+01 -.840249285470D-08
     .303226916332D-09  .100000000000D+01  .178700000000D+04  .000000000000D+00
     .240000000000D+01  .000000000000D+00 -.111758708954D-07  .320000000000D+02
     .432060000000D+05  .400000000000D+01
22 14  4  6 14  0  0.0  .224889256060D-03  .284217094304D-11  .000000000000D+00
     .720000000000D+02 -.162500000000D+01  .559809032579D-08 -.278511856149D+01
    -.225380063057D-06  .701336399652D-02  .736862421036D-05  .515372707176D+04
     .504000000000D+05  .169500708580D-06  .219638598338D+00 -.100582838058D-06
     .924165096694D+00  .217187500000D+03 -.206508328822D+01 -.844820904467D-08
    -.942896418278D-10  .100000000000D+01  .178700000000D+04  .000000000000D+00
     .340000000000D+01  .000000000000D+00 -.172294676304D-07  .720000000000D+02
     .432060000000D+05  .400000000000D+01
23 14  4  6 14  0  0.0 -.101239420474D-04 -.318323145621D-11  .000000000000D+00
     .120000000000D+02  .522500000000D+02  .484770192624D-08  .132707392756D+01
     .297650694847D-05  .908941740636D-02  .820495188236D-05  .515357287216D+04
     .504000000000D+05  .502914190292D-07  .128271718346D+01  .126659870148D-06
     .952142233163D+00  .218156250000D+03 -.279937236190D+01 -.826105839196D-08
    -.293940815243D-09  .100000000000D+01  .178700000000D+04  .000000000000D+00
     .240000000000D+01  .000000000000D+00 -.200234353542D-07  .120000000000D+02
     .432060000000D+05  .400000000000D+01
24 14  4  6 14  0  0.0 -.262293033302D-04 -.682121026330D-12  .000000000000D+00
     .680000000000D+02  .456562500000D+02  .469662420468D-08  .552207189989D+00
     .242888927460D-05  .202673801687D-02  .533647835255D-05  .515374253654D+04
     .504000000000D+05 -.372529029846D-08  .230997911599D+01 -.149011611938D-07
     .957088817082D+00  .269468750000D+03  .306614411950D+00 -.830891752834D-08
    -.853606984729D-10  .100000000000D+01  .178700000000D+04  .000000000000D+00
     .340000000000D+01  .000000000000D+00  .325962901115D-08  .680000000000D+02
     .432060000000D+05  .400000000000D+01
25 14  4  6 14  0  0.0  .209924764931D-04  .113686837722D-11  .000000000000D+00
     .820000000000D+02 -.377500000000D+02  .409909931537D-08 -.150407314083D+01
    -.195764005184D-05  .343966903165D-02  .521540641785D-05  .515362994576D+04
     .504000000000D+05  .126659870148D-06 -.291933266844D+01 -.109896063805D-06
     .976102294601D+00  .288343750000D+03  .630634816311D+00 -.795997442203D-08
    -.107504477993D-09  .100000000000D+01  .178700000000D+04  .000000000000D+00
     .240000000000D+01  .000000000000D+00  .558793544769D-08  .820000000000D+02
     .432060000000D+05  .400000000000D+01
